{
  "type": "FeatureCollection",
  "features": [
    {
      "type": "Feature",
      "properties": {
        "norad_id": 42917,
        "name": "QZS-3 (QZSS/PRN 199)",
        "group": "gnss",
        "lat": -0.030739607566849566,
        "lon": 123.58480831044105,
        "alt_km": 35795.982846358165,
        "timestamp": "2025-12-26T17:24:54.962389+00:00",
        "meta_object_name": "QZS-3 (QZSS/PRN 199)",
        "meta_object_id": "2017-048A",
        "meta_epoch": "2025-12-25T04:50:38.681376",
        "meta_mean_motion": 1.00265271,
        "meta_eccentricity": 0.0002002,
        "meta_inclination": 0.0617,
        "meta_ra_of_asc_node": 178.163,
        "meta_arg_of_pericenter": 103.2559,
        "meta_mean_anomaly": 12.1494,
        "meta_ephemeris_type": 0,
        "meta_classification_type": "U",
        "meta_norad_cat_id": 42917,
        "meta_element_set_no": 999,
        "meta_rev_at_epoch": 3051,
        "meta_bstar": 0,
        "meta_mean_motion_dot": -3.27e-06,
        "meta_mean_motion_ddot": 0,
        "tle_line1": "1 42917U 17048A   25359.20183659 -.00000327  00000+0  00000+0 0  9992",
        "tle_line2": "2 42917   0.0617 178.1630 0002002 103.2559  12.1494  1.00265271 30518"
      },
      "geometry": {
        "type": "Point",
        "coordinates": [
          123.58480831044105,
          -0.030739607566849566
        ]
      }
    },
    {
      "type": "Feature",
      "properties": {
        "norad_id": 42939,
        "name": "COSMOS 2522 (752)",
        "group": "gnss",
        "lat": -37.3777718460793,
        "lon": 39.57705099348688,
        "alt_km": 19118.625435495265,
        "timestamp": "2025-12-26T17:24:54.962407+00:00",
        "meta_object_name": "COSMOS 2522 (752)",
        "meta_object_id": "2017-055A",
        "meta_epoch": "2025-12-25T23:11:37.074048",
        "meta_mean_motion": 2.13102023,
        "meta_eccentricity": 0.00062782,
        "meta_inclination": 64.0768,
        "meta_ra_of_asc_node": 197.7784,
        "meta_arg_of_pericenter": 223.1458,
        "meta_mean_anomaly": 136.8589,
        "meta_ephemeris_type": 0,
        "meta_classification_type": "U",
        "meta_norad_cat_id": 42939,
        "meta_element_set_no": 999,
        "meta_rev_at_epoch": 6428,
        "meta_bstar": 0,
        "meta_mean_motion_dot": 1.1e-06,
        "meta_mean_motion_ddot": 0,
        "tle_line1": "1 42939U 17055A   25359.96640132  .00000110  00000+0  00000+0 0  9990",
        "tle_line2": "2 42939  64.0768 197.7784 0006278 223.1458 136.8589  2.13102023 64285"
      },
      "geometry": {
        "type": "Point",
        "coordinates": [
          39.57705099348688,
          -37.3777718460793
        ]
      }
    },
    {
      "type": "Feature",
      "properties": {
        "norad_id": 42965,
        "name": "QZS-4 (QZSS/PRN 195)",
        "group": "gnss",
        "lat": 24.109093836351427,
        "lon": 133.70261834342256,
        "alt_km": 37566.10616578247,
        "timestamp": "2025-12-26T17:24:54.962485+00:00",
        "meta_object_name": "QZS-4 (QZSS/PRN 195)",
        "meta_object_id": "2017-062A",
        "meta_epoch": "2025-12-24T19:47:03.643008",
        "meta_mean_motion": 1.00301022,
        "meta_eccentricity": 0.0751986,
        "meta_inclination": 40.2171,
        "meta_ra_of_asc_node": 345.7144,
        "meta_arg_of_pericenter": 268.3083,
        "meta_mean_anomaly": 272.9513,
        "meta_ephemeris_type": 0,
        "meta_classification_type": "U",
        "meta_norad_cat_id": 42965,
        "meta_element_set_no": 999,
        "meta_rev_at_epoch": 3005,
        "meta_bstar": 0,
        "meta_mean_motion_dot": -3.02e-06,
        "meta_mean_motion_ddot": 0,
        "tle_line1": "1 42965U 17062A   25358.82434772 -.00000302  00000+0  00000+0 0  9996",
        "tle_line2": "2 42965  40.2171 345.7144 0751986 268.3083 272.9513  1.00301022 30053"
      },
      "geometry": {
        "type": "Point",
        "coordinates": [
          133.70261834342256,
          24.109093836351427
        ]
      }
    },
    {
      "type": "Feature",
      "properties": {
        "norad_id": 43001,
        "name": "BEIDOU-3 M1 (C19)",
        "group": "gnss",
        "lat": -24.719959196542515,
        "lon": 51.08346107808007,
        "alt_km": 21507.16407656182,
        "timestamp": "2025-12-26T17:24:54.962516+00:00",
        "meta_object_name": "BEIDOU-3 M1 (C19)",
        "meta_object_id": "2017-069A",
        "meta_epoch": "2025-12-25T03:49:47.920224",
        "meta_mean_motion": 1.86231313,
        "meta_eccentricity": 0.0009789,
        "meta_inclination": 56.5365,
        "meta_ra_of_asc_node": 68.8241,
        "meta_arg_of_pericenter": 302.2681,
        "meta_mean_anomaly": 57.6912,
        "meta_ephemeris_type": 0,
        "meta_classification_type": "U",
        "meta_norad_cat_id": 43001,
        "meta_element_set_no": 999,
        "meta_rev_at_epoch": 5536,
        "meta_bstar": 0,
        "meta_mean_motion_dot": -2.5e-07,
        "meta_mean_motion_ddot": 0,
        "tle_line1": "1 43001U 17069A   25359.15958241 -.00000025  00000+0  00000+0 0  9996",
        "tle_line2": "2 43001  56.5365  68.8241 0009789 302.2681  57.6912  1.86231313 55361"
      },
      "geometry": {
        "type": "Point",
        "coordinates": [
          51.08346107808007,
          -24.719959196542515
        ]
      }
    },
    {
      "type": "Feature",
      "properties": {
        "norad_id": 43002,
        "name": "BEIDOU-3 M2 (C20)",
        "group": "gnss",
        "lat": 9.39663120100788,
        "lon": 75.0994793019521,
        "alt_km": 21513.454027005162,
        "timestamp": "2025-12-26T17:24:54.962536+00:00",
        "meta_object_name": "BEIDOU-3 M2 (C20)",
        "meta_object_id": "2017-069B",
        "meta_epoch": "2025-12-25T15:14:16.903968",
        "meta_mean_motion": 1.86231039,
        "meta_eccentricity": 0.0006764,
        "meta_inclination": 56.5366,
        "meta_ra_of_asc_node": 68.8439,
        "meta_arg_of_pericenter": 327.6836,
        "meta_mean_anomaly": 32.3283,
        "meta_ephemeris_type": 0,
        "meta_classification_type": "U",
        "meta_norad_cat_id": 43002,
        "meta_element_set_no": 999,
        "meta_rev_at_epoch": 5536,
        "meta_bstar": 0,
        "meta_mean_motion_dot": -2.7e-07,
        "meta_mean_motion_ddot": 0,
        "tle_line1": "1 43002U 17069B   25359.63491787 -.00000027  00000+0  00000+0 0  9999",
        "tle_line2": "2 43002  56.5366  68.8439 0006764 327.6836  32.3283  1.86231039 55361"
      },
      "geometry": {
        "type": "Point",
        "coordinates": [
          75.0994793019521,
          9.39663120100788
        ]
      }
    },
    {
      "type": "Feature",
      "properties": {
        "norad_id": 43055,
        "name": "GSAT0215 (GALILEO 19)",
        "group": "gnss",
        "lat": 53.56387125830293,
        "lon": -24.535570858179472,
        "alt_km": 23217.13459039541,
        "timestamp": "2025-12-26T17:24:54.962554+00:00",
        "meta_object_name": "GSAT0215 (GALILEO 19)",
        "meta_object_id": "2017-079A",
        "meta_epoch": "2025-12-24T05:08:42.877824",
        "meta_mean_motion": 1.70473983,
        "meta_eccentricity": 0.00011857,
        "meta_inclination": 55.1264,
        "meta_ra_of_asc_node": 226.3216,
        "meta_arg_of_pericenter": 351.3988,
        "meta_mean_anomaly": 8.6951,
        "meta_ephemeris_type": 0,
        "meta_classification_type": "U",
        "meta_norad_cat_id": 43055,
        "meta_element_set_no": 999,
        "meta_rev_at_epoch": 5000,
        "meta_bstar": 0,
        "meta_mean_motion_dot": 7.2e-07,
        "meta_mean_motion_ddot": 0,
        "tle_line1": "1 43055U 17079A   25358.21438516  .00000072  00000+0  00000+0 0  9991",
        "tle_line2": "2 43055  55.1264 226.3216 0001185 351.3988   8.6951  1.70473983 50002"
      },
      "geometry": {
        "type": "Point",
        "coordinates": [
          -24.535570858179472,
          53.56387125830293
        ]
      }
    },
    {
      "type": "Feature",
      "properties": {
        "norad_id": 43056,
        "name": "GSAT0216 (GALILEO 20)",
        "group": "gnss",
        "lat": -53.22965167419445,
        "lon": 157.36916628652267,
        "alt_km": 23223.087309132414,
        "timestamp": "2025-12-26T17:24:54.962571+00:00",
        "meta_object_name": "GSAT0216 (GALILEO 20)",
        "meta_object_id": "2017-079B",
        "meta_epoch": "2025-12-25T02:12:49.402944",
        "meta_mean_motion": 1.7047407,
        "meta_eccentricity": 0.00022728,
        "meta_inclination": 55.1265,
        "meta_ra_of_asc_node": 226.2974,
        "meta_arg_of_pericenter": 325.9162,
        "meta_mean_anomaly": 34.1608,
        "meta_ephemeris_type": 0,
        "meta_classification_type": "U",
        "meta_norad_cat_id": 43056,
        "meta_element_set_no": 999,
        "meta_rev_at_epoch": 5003,
        "meta_bstar": 0,
        "meta_mean_motion_dot": 7e-07,
        "meta_mean_motion_ddot": 0,
        "tle_line1": "1 43056U 17079B   25359.09223846  .00000070  00000+0  00000+0 0  9995",
        "tle_line2": "2 43056  55.1265 226.2974 0002272 325.9162  34.1608  1.70474070 50037"
      },
      "geometry": {
        "type": "Point",
        "coordinates": [
          157.36916628652267,
          -53.22965167419445
        ]
      }
    }
  ]
}